ATHENA-FIDUS            
1 39509U 14006B   26167.92545368  .00000151  00000+0  00000+0 0  9996
2 39509   0.0267  83.4358 0001225   7.4811 185.2275  1.00272328 45087
TURKSAT 4A              
1 39522U 14007A   26166.55250025  .00000148  00000+0  00000+0 0  9999
2 39522   0.0373 309.3372 0001354   3.4170 191.9811  1.00273025 44953
EXPRESS-AT1             
1 39612U 14010A   26167.94004704  .00000021  00000+0  00000+0 0  9998
2 39612   0.2569  85.6319 0003709  43.5527 176.7298  1.00303128 44817
EXPRESS-AT2             
1 39613U 14010B   26167.95233380  .00000076  00000+0  00000+0 0  9994
2 39613   0.0123 300.7988 0000595 351.1609  12.0810  1.00269861 44495
AMAZONAS 4A             
1 39616U 14011A   26168.13767666 -.00000256  00000+0  00000+0 0  9999
2 39616   0.0585 175.5063 0003831 297.6551 127.7968  1.00269909 44714
ASTRA 5B                
1 39617U 14011B   26167.47555459  .00000136  00000+0  00000+0 0  9997
2 39617   0.0452 340.6495 0001744  94.4588  24.3375  1.00273179 44668
IRNSS-1B                
1 39635U 14017A   26167.76718330  .00000124  00000+0  00000+0 0  9991
2 39635  28.9227 240.4107 0023087 189.8783 166.0734  1.00276230 44781
LUCH-5V                 
1 39727U 14023A   26167.77492795 -.00000275  00000+0  00000+0 0  9993
2 39727   5.1311  69.7444 0001832  48.8858 160.0851  1.00274535 44354
KAZSAT-3                
1 39728U 14023B   26167.94249750  .00000057  00000+0  00000+0 0  9991
2 39728   0.0163  29.5772 0000232  80.8505 192.5741  1.00272092 42453
EUTELSAT 3B             
1 39773U 14030A   26167.75677976  .00000017  00000+0  00000+0 0  9999
2 39773   0.0654  15.9266 0003906  69.0957  95.5207  1.00270611 44069
ASIASAT 8 (AMOS-7)      
1 40107U 14046A   26167.75700208 -.00000336  00000+0  00000+0 0  9999
2 40107   0.0110  42.2921 0001259  33.8452 206.6908  1.00273989102146
ASIASAT 6               
1 40141U 14052A   26167.77986796 -.00000365  00000+0  00000+0 0  9996
2 40141   0.0278  73.4742 0000621  23.9460 208.2938  1.00271037 43076
OPTUS 10                
1 40146U 14054A   26167.71573019 -.00000150  00000+0  00000+0 0  9999
2 40146   0.1052 320.7306 0001957 124.0495 233.8705  1.00270965 43020
MEASAT-3B               
1 40147U 14054B   26167.79595271 -.00000244  00000+0  00000+0 0  9996
2 40147   0.0263  12.9524 0003015  72.8311 197.3220  1.00271333 42902
HIMAWARI-8              
1 40267U 14060A   26167.78402799 -.00000278  00000+0  00000+0 0  9994
2 40267   0.0158 359.9150 0000992  89.2732 238.7759  1.00271710 42756
IRNSS-1C                
1 40269U 14061A   26167.73856350 -.00000167  00000+0  00000+0 0  9995
2 40269   6.5166  88.9398 0022717   2.3779 162.5463  1.00269403 42681
INTELSAT 30 (IS-30)     
1 40271U 14062A   26168.18826855 -.00000155  00000+0  00000+0 0  9993
2 40271   0.0266  49.1982 0001214 329.4253 219.5457  1.00270128  6795
ARSAT 1                 
1 40272U 14062B   26168.13946336 -.00000263  00000+0  00000+0 0  9996
2 40272   0.0334  53.3538 0001685  24.4371 166.0059  1.00270280 42626
EUTELSAT 53A            
1 40277U 14064A   26167.93230904  .00000094  00000+0  00000+0 0  9998
2 40277   0.0122 300.5427 0000880 255.0236  98.2632  1.00276883 41568
GSAT-16                 
1 40332U 14078A   26167.95232957  .00000082  00000+0  00000+0 0  9994
2 40332   0.0894  89.5968 0007518   0.1624 213.3707  1.00269885 42103
DIRECTV 14              
1 40333U 14078B   26167.49072346 -.00000127  00000+0  00000+0 0  9999
2 40333   0.0113  18.2775 0000515 282.0583  41.8420  1.00269953 42032
YAMAL 401               
1 40345U 14082A   26167.93662178  .00000000  00000+0  00000+0 0  9993
2 40345   0.0177 344.6722 0000186 320.3413  27.3311  1.00271664 41911
ASTRA 2G                
1 40364U 14089A   26167.76172328  .00000147  00000+0  00000+0 0  9997
2 40364   0.0457 355.1085 0004493  74.8046 137.5451  1.00273481 41963
FENGYUN 2G              
1 40367U 14090A   26167.77588127 -.00000308  00000+0  00000+0 0  9991
2 40367   5.6375  72.8180 0004095 156.3445  54.8771  1.00272344 41998
MUOS-3                  
1 40374U 15002A   26167.82437742 -.00000134  00000+0  00000+0 0  9992
2 40374   4.5200  43.5218 0051932 178.0553 324.8552  1.00271526 41584
INMARSAT 5-F2           
1 40384U 15005A   26167.74519698 -.00000288  00000+0  00000+0 0  9998
2 40384   0.0171   3.3865 0000817 308.5379 166.3581  1.00269337 40999
ABS-3A                  
1 40424U 15010A   26165.61683122  .00000000  00000+0  00000+0 0  9998
2 40424   0.0373  52.4733 0002129 342.4445  87.0276  1.00272172 41358
EUTELSAT 115 WEST B     
1 40425U 15010B   26165.95115883 -.00000019  00000+0  00000+0 0  9991
2 40425   0.0430 168.0991 0000244 255.4768  67.1796  1.00269789 41378
EXPRESS-AM7             
1 40505U 15012A   26167.76406329  .00000148  00000+0  00000+0 0  9993
2 40505   0.0173  13.7213 0002842  77.8317 128.5147  1.00270291 41008
BEIDOU-3S IGSO-1S       
1 40549U 15019A   26167.68394563 -.00000175  00000+0  00000+0 0  9996
2 40549  49.1964 295.4674 0039073 191.1195 116.0543  1.00249872 41067
THOR 7                  
1 40613U 15022A   26167.68470933 -.00000010  00000+0  00000+0 0  9996
2 40613   0.0303 241.4405 0002346 202.6902  66.6659  1.00272519 40816
TURKMENALEM52E/MONACOSAT
1 40617U 15023A   26167.93120919  .00000101  00000+0  00000+0 0  9995
2 40617   0.0366  75.3053 0002659   4.0234 213.1031  1.00270789 40844
DIRECTV 15              
1 40663U 15026A   26167.49072346 -.00000104  00000+0  00000+0 0  9994
2 40663   0.0163  19.7583 0000217 245.1602  73.6288  1.00270929 40451
SKY MEXICO-1            
1 40664U 15026B   26168.13257859 -.00000238  00000+0  00000+0 0  9999
2 40664   0.0173  14.3306 0002046  92.8977 127.0865  1.00270178 40452
METEOSAT-11 (MSG-4)     
1 40732U 15034A   26167.75807976  .00000061  00000+0  00000+0 0  9995
2 40732   3.2002  71.1126 0001751  11.1942 105.2805  1.00280240  7213
STAR ONE C4             
1 40733U 15034B   26167.30600472 -.00000266  00000+0  00000+0 0  9997
2 40733   0.0376  43.1544 0001991  32.6346 228.9499  1.00269790 40001
WGS F7 (USA 263)        
1 40746U 15036A   26167.71954352  .00000000  00000+0  00000+0 0  9992
2 40746   0.0385  49.1303 0000407 153.3663 136.4953  1.00271823 39868
INTELSAT 34 (IS-34)     
1 40874U 15039A   26168.12954185 -.00000289  00000+0  00000+0 0  9997
2 40874   0.0102 346.2009 0000502 341.7324 288.6032  1.00269821 39632
EUTELSAT 8 WEST B       
1 40875U 15039B   26167.75455703 -.00000068  00000+0  00000+0 0  9993
2 40875   0.0638 345.0011 0003982  97.6535  86.0101  1.00271373 39657
GSAT-6                  
1 40880U 15041A   26167.70914295 -.00000164  00000+0  00000+0 0  9990
2 40880   1.9181  82.6023 0003316 357.2240 162.9762  1.00272192 39592
INMARSAT 5-F3           
1 40882U 15042A   26167.43522235  .00000049  00000+0  00000+0 0  9993
2 40882   0.0176  15.2253 0000133 159.8809  65.9066  1.00269224 39564
MUOS-4                  
1 40887U 15044A   26167.95038942 -.00000098  00000+0  00000+0 0  9999
2 40887   4.3298  42.2473 0057891   2.1414 277.9457  1.00271044 39551
TJS-1                   
1 40892U 15046A   26167.73740366 -.00000158  00000+0  00000+0 0  9990
2 40892   0.3228  84.9089 0005484 359.1818 241.4359  1.00270855 39563
EXPRESS-AM8             
1 40895U 15048A   26168.09275470 -.00000115  00000+0  00000+0 0  9997
2 40895   0.0143 297.1564 0000569  10.6854 336.8957  1.00271066 39347
BEIDOU-3S IGSO-2S       
1 40938U 15053A   26167.64207361 -.00000129  00000+0  00000+0 0  9990
2 40938  49.2224 258.7891 0065689 192.0910 140.3729  1.00258798 39340
SKY MUSTER 1 (NBN1A)    
1 40940U 15054A   26167.85520468  .00000000  00000+0  00000+0 0  9990
2 40940   0.0246 346.3345 0001596  98.3893 268.5032  1.00268488 39252
ARSAT 2                 
1 40941U 15054B   26167.95402645 -.00000228  00000+0  00000+0 0  9991
2 40941   0.0358  59.3223 0001955   9.8880  98.4515  1.00270694 39309
MORELOS 3               
1 40946U 15056A   26167.66234921 -.00000047  00000+0  00000+0 0  9995
2 40946   3.1863  15.0566 0001095   5.4090   9.8243  1.00273294 39288
APSTAR-9                
1 40982U 15059A   26167.78428799 -.00000268  00000+0  00000+0 0  9994
2 40982   0.0330  47.2768 0002268 141.1712 140.9577  1.00271706 39111
TURKSAT 4B              
1 40984U 15060A   26167.92899226  .00000112  00000+0  00000+0 0  9998
2 40984   0.0126 304.3103 0002087 126.1723 219.1238  1.00272586 39097
ZHONGXING-2C            
1 41021U 15063A   26167.82544684 -.00000327  00000+0  00000+0 0  9997
2 41021   0.2725  89.8001 0007623  99.3027 116.6030  1.00271008 38973
GSAT-15                 
1 41028U 15065A   26167.98855617 -.00000261  00000+0  00000+0 0  9991
2 41028   0.0705 265.2365 0004211 163.2824 286.1079  1.00272370 38794
BADR-7 (ARABSAT-6B)     
1 41029U 15065B   26167.76128993  .00000142  00000+0  00000+0 0  9995
2 41029   0.0498 241.3376 0004017 317.2659   6.5039  1.00274495 38769
LAOSAT 1                
1 41034U 15067A   26167.78160131 -.00000345  00000+0  00000+0 0  9991
2 41034   0.0482 160.0850 0002157 235.8938 278.9523  1.00269581 38853
TELSTAR 12V             
1 41036U 15068A   26167.75317035 -.00000121  00000+0  00000+0 0  9990
2 41036   0.0172   2.0995 0002135  75.9541  83.1102  1.00271002 38620
ELEKTRO-L 2             
1 41105U 15074A   26167.63786162 -.00000124  00000+0  00000+0 0  9995
2 41105   6.6931  70.5258 0000972 242.2635 167.2330  1.00270425 38506
COSMOS 2513             
1 41121U 15075A   26167.77186332 -.00000140  00000+0  00000+0 0  9990
2 41121   0.0791  98.9115 0003084 335.1870 189.0515  1.00269420 38546
EXPRESS-AMU1            
1 41191U 15082A   26167.47815461  .00000154  00000+0  00000+0 0  9998
2 41191   0.0250  65.7610 0002632  20.4821  26.7424  1.00273570 38269
GAOFEN-4                
1 41194U 15083A   26167.77709462 -.00000337  00000+0  00000+0 0  9992
2 41194   0.3561  83.7666 0004378 115.3857  91.3346  1.00268878 38528
